{"type": "FeatureCollection", "features": [ {"type": "Feature", "properties": {"norad_id": 39541, "name": "FENGYUN 1C DEB", "group": "fengyun-1c-debris", "lat": 38.05714867388433, "lon": -146.36044076206986, "alt_km": 797.025118751525, "timestamp": "2025-12-10T14:53:37.380698+00:00", "meta": {"OBJECT_NAME": "FENGYUN 1C DEB", "OBJECT_ID": "1999-025EWJ", "EPOCH": "2025-11-26T08:43:14.269440", "MEAN_MOTION": 14.20329557, "ECCENTRICITY": 0.00721468, "INCLINATION": 98.6819, "RA_OF_ASC_NODE": 12.7746, "ARG_OF_PERICENTER": 119.8468, "MEAN_ANOMALY": 240.9905, "EPHEMERIS_TYPE": 0, "CLASSIFICATION_TYPE": "U", "NORAD_CAT_ID": 39541, "ELEMENT_SET_NO": 999, "REV_AT_EPOCH": 58770, "BSTAR": 0.00069059031, "MEAN_MOTION_DOT": 1.475e-05, "MEAN_MOTION_DDOT": 0}, "tle": {"line1": "1 39541U 99025EWJ 25330.36335960  .00001475  00000+0  69059-3 0  9993", "line2": "2 39541  98.6819  12.7746 0072146 119.8468 240.9905 14.20329557587703"}}, "geometry": {"type": "Point", "coordinates": [-146.36044076206986, 38.05714867388433]}}, {"type": "Feature", "properties": {"norad_id": 39543, "name": "FENGYUN 1C DEB", "group": "fengyun-1c-debris", "lat": -25.34619382286784, "lon": 18.919251044579045, "alt_km": 1252.9138594232372, "timestamp": "2025-12-10T14:53:37.380707+00:00", "meta": {"OBJECT_NAME": "FENGYUN 1C DEB", "OBJECT_ID": "1999-025EWL", "EPOCH": "2025-12-10T08:00:59.700384", "MEAN_MOTION": 13.70181434, "ECCENTRICITY": 0.03392588, "INCLINATION": 99.0425, "RA_OF_ASC_NODE": 14.3234, "ARG_OF_PERICENTER": 148.4855, "MEAN_ANOMALY": 213.7111, "EPHEMERIS_TYPE": 0, "CLASSIFICATION_TYPE": "U", "NORAD_CAT_ID": 39543, "ELEMENT_SET_NO": 999, "REV_AT_EPOCH": 49152, "BSTAR": 0.0012394386, "MEAN_MOTION_DOT": 1.601e-05, "MEAN_MOTION_DDOT": 0}, "tle": {"line1": "1 39543U 99025EWL 25344.33402431  .00001601  00000+0  12394-2 0  9995", "line2": "2 39543  99.0425  14.3234 0339258 148.4855 213.7111 13.70181434491526"}}, "geometry": {"type": "Point", "coordinates": [18.919251044579045, -25.34619382286784]}}, {"type": "Feature", "properties": {"norad_id": 39544, "name": "FENGYUN 1C DEB", "group": "fengyun-1c-debris", "lat": 61.02739502677182, "lon": 59.9698175977117, "alt_km": 877.23882623174, "timestamp": "2025-12-10T14:53:37.380716+00:00", "meta": {"OBJECT_NAME": "FENGYUN 1C DEB", "OBJECT_ID": "1999-025EWM", "EPOCH": "2025-12-08T09:22:33.750624", "MEAN_MOTION": 14.05512501, "ECCENTRICITY": 0.00547745, "INCLINATION": 98.7418, "RA_OF_ASC_NODE": 221.6849, "ARG_OF_PERICENTER": 21.3384, "MEAN_ANOMALY": 339.0051, "EPHEMERIS_TYPE": 0, "CLASSIFICATION_TYPE": "U", "NORAD_CAT_ID": 39544, "ELEMENT_SET_NO": 999, "REV_AT_EPOCH": 56794, "BSTAR": 0.00088149338, "MEAN_MOTION_DOT": 1.41e-05, "MEAN_MOTION_DDOT": 0}, "tle": {"line1": "1 39544U 99025EWM 25342.39066841  .00001410  00000+0  88149-3 0  9991", "line2": "2 39544  98.7418 221.6849 0054774  21.3384 339.0051 14.05512501567940"}}, "geometry": {"type": "Point", "coordinates": [59.9698175977117, 61.02739502677182]}}, {"type": "Feature", "properties": {"norad_id": 40688, "name": "FENGYUN 1C DEB", "group": "fengyun-1c-debris", "lat": -55.72499002842534, "lon": -59.13092209784266, "alt_km": 1055.7679920936953, "timestamp": "2025-12-10T14:53:37.380724+00:00", "meta": {"OBJECT_NAME": "FENGYUN 1C DEB", "OBJECT_ID": "1999-025EWU", "EPOCH": "2025-11-28T15:26:17.467872", "MEAN_MOTION": 13.83811366, "ECCENTRICITY": 0.01426841, "INCLINATION": 98.9673, "RA_OF_ASC_NODE": 122.8373, "ARG_OF_PERICENTER": 69.4473, "MEAN_ANOMALY": 292.1926, "EPHEMERIS_TYPE": 0, "CLASSIFICATION_TYPE": "U", "NORAD_CAT_ID": 40688, "ELEMENT_SET_NO": 999, "REV_AT_EPOCH": 29722, "BSTAR": 0.00038169517, "MEAN_MOTION_DOT": 4.17e-06, "MEAN_MOTION_DDOT": 0}, "tle": {"line1": "1 40688U 99025EWU 25332.64325773  .00000417  00000+0  38170-3 0  9996", "line2": "2 40688  98.9673 122.8373 0142684  69.4473 292.1926 13.83811366297227"}}, "geometry": {"type": "Point", "coordinates": [-59.13092209784266, -55.72499002842534]}}, {"type": "Feature", "properties": {"norad_id": 40689, "name": "FENGYUN 1C DEB", "group": "fengyun-1c-debris", "lat": 64.11835339309626, "lon": 102.05371151269772, "alt_km": 784.7659853765654, "timestamp": "2025-12-10T14:53:37.380733+00:00", "meta": {"OBJECT_NAME": "FENGYUN 1C DEB", "OBJECT_ID": "1999-025EWV", "EPOCH": "2025-12-08T00:46:07.511232", "MEAN_MOTION": 13.64679395, "ECCENTRICITY": 0.03101306, "INCLINATION": 99.1251, "RA_OF_ASC_NODE": 260.272, "ARG_OF_PERICENTER": 113.5696, "MEAN_ANOMALY": 249.8343, "EPHEMERIS_TYPE": 0, "CLASSIFICATION_TYPE": "U", "NORAD_CAT_ID": 40689, "ELEMENT_SET_NO": 999, "REV_AT_EPOCH": 54819, "BSTAR": 0.0018824764, "MEAN_MOTION_DOT": 2.064e-05, "MEAN_MOTION_DDOT": 0}, "tle": {"line1": "1 40689U 99025EWV 25342.03203138  .00002064  00000+0  18825-2 0  9995", "line2": "2 40689  99.1251 260.2720 0310130 113.5696 249.8343 13.64679395548197"}}, "geometry": {"type": "Point", "coordinates": [102.05371151269772, 64.11835339309626]}}, {"type": "Feature", "properties": {"norad_id": 40691, "name": "FENGYUN 1C DEB", "group": "fengyun-1c-debris", "lat": 32.36207389704908, "lon": 11.137692922265865, "alt_km": 903.0191904172361, "timestamp": "2025-12-10T14:53:37.380742+00:00", "meta": {"OBJECT_NAME": "FENGYUN 1C DEB", "OBJECT_ID": "1999-025EWX", "EPOCH": "2025-12-03T08:15:02.306016", "MEAN_MOTION": 13.89944729, "ECCENTRICITY": 0.0128434, "INCLINATION": 99.0573, "RA_OF_ASC_NODE": 9.8547, "ARG_OF_PERICENTER": 336.6089, "MEAN_ANOMALY": 22.9259, "EPHEMERIS_TYPE": 0, "CLASSIFICATION_TYPE": "U", "NORAD_CAT_ID": 40691, "ELEMENT_SET_NO": 999, "REV_AT_EPOCH": 55305, "BSTAR": 0.00023937, "MEAN_MOTION_DOT": 2.71e-06, "MEAN_MOTION_DDOT": 0}, "tle": {"line1": "1 40691U 99025EWX 25337.34377669  .00000271  00000+0  23937-3 0  9996", "line2": "2 40691  99.0573   9.8547 0128434 336.6089  22.9259 13.89944729553058"}}, "geometry": {"type": "Point", "coordinates": [11.137692922265865, 32.36207389704908]}}, {"type": "Feature", "properties": {"norad_id": 40695, "name": "FENGYUN 1C DEB", "group": "fengyun-1c-debris", "lat": -6.7306122578236085, "lon": 103.69987815589967, "alt_km": 532.1990669787392, "timestamp": "2025-12-10T14:53:37.380751+00:00", "meta": {"OBJECT_NAME": "FENGYUN 1C DEB", "OBJECT_ID": "1999-025EXB", "EPOCH": "2025-12-08T01:41:20.731776", "MEAN_MOTION": 14.5094297, "ECCENTRICITY": 0.02812644, "INCLINATION": 99.4262, "RA_OF_ASC_NODE": 99.7179, "ARG_OF_PERICENTER": 346.8428, "MEAN_ANOMALY": 12.553, "EPHEMERIS_TYPE": 0, "CLASSIFICATION_TYPE": "U", "NORAD_CAT_ID": 40695, "ELEMENT_SET_NO": 999, "REV_AT_EPOCH": 31798, "BSTAR": 0.00027064659, "MEAN_MOTION_DOT": 1.711e-05, "MEAN_MOTION_DDOT": 0}, "tle": {"line1": "1 40695U 99025EXB 25342.07037884  .00001711  00000+0  27065-3 0  9994", "line2": "2 40695  99.4262  99.7179 0281264 346.8428  12.5530 14.50942970317983"}}, "geometry": {"type": "Point", "coordinates": [103.69987815589967, -6.7306122578236085]}}, {"type": "Feature", "properties": {"norad_id": 40696, "name": "FENGYUN 1C DEB", "group": "fengyun-1c-debris", "lat": -70.924202696342, "lon": -1.4418956969539773, "alt_km": 898.0078147006461, "timestamp": "2025-12-10T14:53:37.380760+00:00", "meta": {"OBJECT_NAME": "FENGYUN 1C DEB", "OBJECT_ID": "1999-025EXC", "EPOCH": "2025-11-26T05:40:29.681760", "MEAN_MOTION": 13.96727195, "ECCENTRICITY": 0.00806572, "INCLINATION": 98.9548, "RA_OF_ASC_NODE": 317.4298, "ARG_OF_PERICENTER": 42.7994, "MEAN_ANOMALY": 317.9411, "EPHEMERIS_TYPE": 0, "CLASSIFICATION_TYPE": "U", "NORAD_CAT_ID": 40696, "ELEMENT_SET_NO": 999, "REV_AT_EPOCH": 55449, "BSTAR": 0.0001965233, "MEAN_MOTION_DOT": 2.38e-06, "MEAN_MOTION_DDOT": 0}, "tle": {"line1": "1 40696U 99025EXC 25330.23645465  .00000238  00000+0  19652-3 0  9996", "line2": "2 40696  98.9548 317.4298 0080657  42.7994 317.9411 13.96727195554498"}}, "geometry": {"type": "Point", "coordinates": [-1.4418956969539773, -70.924202696342]}}, {"type": "Feature", "properties": {"norad_id": 41003, "name": "FENGYUN 1C DEB", "group": "fengyun-1c-debris", "lat": -31.244709749727893, "lon": -90.9927685601041, "alt_km": 613.6175364575056, "timestamp": "2025-12-10T14:53:37.380769+00:00", "meta": {"OBJECT_NAME": "FENGYUN 1C DEB", "OBJECT_ID": "1999-025EXH", "EPOCH": "2025-12-04T00:49:42.134016", "MEAN_MOTION": 14.71928212, "ECCENTRICITY": 0.0073367, "INCLINATION": 98.9659, "RA_OF_ASC_NODE": 256.2527, "ARG_OF_PERICENTER": 319.547, "MEAN_ANOMALY": 40.0293, "EPHEMERIS_TYPE": 0, "CLASSIFICATION_TYPE": "U", "NORAD_CAT_ID": 41003, "ELEMENT_SET_NO": 999, "REV_AT_EPOCH": 52292, "BSTAR": 0.0095392716, "MEAN_MOTION_DOT": 0.00062834, "MEAN_MOTION_DDOT": 0}, "tle": {"line1": "1 41003U 99025EXH 25338.03451544  .00062834  00000+0  95393-2 0  9993", "line2": "2 41003  98.9659 256.2527 0073367 319.5470  40.0293 14.71928212522925"}}, "geometry": {"type": "Point", "coordinates": [-90.9927685601041, -31.244709749727893]}}, {"type": "Feature", "properties": {"norad_id": 41006, "name": "FENGYUN 1C DEB", "group": "fengyun-1c-debris", "lat": 29.457070080179378, "lon": 41.86279745718139, "alt_km": 1042.1594910532413, "timestamp": "2025-12-10T14:53:37.380778+00:00", "meta": {"OBJECT_NAME": "FENGYUN 1C DEB", "OBJECT_ID": "1999-025EXL", "EPOCH": "2025-12-08T08:27:10.950912", "MEAN_MOTION": 13.85315126, "ECCENTRICITY": 0.01896295, "INCLINATION": 102.3663, "RA_OF_ASC_NODE": 211.7628, "ARG_OF_PERICENTER": 18.9212, "MEAN_ANOMALY": 341.8856, "EPHEMERIS_TYPE": 0, "CLASSIFICATION_TYPE": "U", "NORAD_CAT_ID": 41006, "ELEMENT_SET_NO": 999, "REV_AT_EPOCH": 57428, "BSTAR": 0.0041566845, "MEAN_MOTION_DOT": 5.374e-05, "MEAN_MOTION_DDOT": 0}, "tle": {"line1": "1 41006U 99025EXL 25342.35221008  .00005374  00000+0  41567-2 0  9996", "line2": "2 41006 102.3663 211.7628 0189629  18.9212 341.8856 13.85315126574285"}}, "geometry": {"type": "Point", "coordinates": [41.86279745718139, 29.457070080179378]}}]}